OBJECT_NAME,OBJECT_ID,EPOCH,MEAN_MOTION,ECCENTRICITY,INCLINATION,RA_OF_ASC_NODE,ARG_OF_PERICENTER,MEAN_ANOMALY,EPHEMERIS_TYPE,CLASSIFICATION_TYPE,NORAD_CAT_ID,ELEMENT_SET_NO,REV_AT_EPOCH,BSTAR,MEAN_MOTION_DOT,MEAN_MOTION_DDOT
ONEWEB-0399,2021-132L,2026-06-13T20:10:19.688160,13.11413541,.0002183,87.8897,21.7347,76.0222,284.1148,0,U,50479,999,21516,.16069E-4,.18E-6,0
ONEWEB-0400,2021-132M,2026-06-13T17:54:19.137312,13.18685253,.000192,87.9168,336.1293,97.5450,262.5900,0,U,50480,999,22115,.1885E-3,.87E-6,0
ONEWEB-0401,2021-132N,2026-06-13T20:49:08.004000,13.18685011,.0001652,87.9170,336.1021,87.0616,273.0705,0,U,50481,999,22117,-.11108E-3,-.31E-6,0
ONEWEB-0402,2021-132P,2026-06-13T18:06:28.082880,13.18685854,.0001598,87.9168,336.1140,78.8273,281.3038,0,U,50482,999,22118,.20711E-3,.95E-6,0
ONEWEB-0403,2021-132Q,2026-06-13T20:32:08.065824,13.18685626,.0001976,87.9169,336.1180,90.5045,269.6314,0,U,50483,999,22115,.22718E-3,.102E-5,0
ONEWEB-0404,2021-132R,2026-06-13T16:03:44.934048,13.11417015,.0002137,87.8893,21.7675,83.7899,276.3472,0,U,50484,999,21523,.1532E-2,.556E-5,0
ONEWEB-0405,2021-132S,2026-06-13T20:51:34.367328,13.18686786,.0001955,87.9173,336.0998,105.6809,254.4539,0,U,50485,999,22155,-.3609E-4,-.1E-7,0
ONEWEB-0406,2021-132T,2026-06-13T20:39:25.381152,13.18685389,.0002349,87.9165,336.1181,87.3327,272.8074,0,U,50486,999,22118,-.45094E-4,-.5E-7,0
ONEWEB-0407,2021-132U,2026-06-13T20:29:43.170432,13.18685248,.0001636,87.9169,336.1115,94.8420,265.2899,0,U,50487,999,22112,-.7962E-5,.1E-6,0
ONEWEB-0409,2021-132V,2026-06-13T14:11:25.738368,13.11418292,.0002099,87.8897,21.7710,86.6742,273.4626,0,U,50488,999,21511,.1496E-2,.543E-5,0
ONEWEB-0412,2021-132W,2026-06-13T20:12:42.494400,13.18684993,.000165,87.9166,336.1224,83.5970,276.5350,0,U,50489,999,22121,.61071E-4,.37E-6,0
ONEWEB-0413,2021-132X,2026-06-13T20:20:01.956768,13.18670677,.0001531,87.9159,336.1205,85.6717,274.4590,0,U,50490,999,22115,-.43081E-2,-.1685E-4,0
ONEWEB-0414,2021-132Y,2026-06-13T18:08:53.215872,13.18685147,.0001842,87.9168,336.1199,86.3593,273.7750,0,U,50491,999,22117,.55965E-4,.35E-6,0
ONEWEB-0417,2021-132Z,2026-06-13T18:21:01.490112,13.18685179,.000208,87.9159,336.1381,91.3032,268.8338,0,U,50492,999,22115,.60225E-5,.15E-6,0
ONEWEB-0418,2021-132AA,2026-06-13T20:24:38.399616,13.18694820,.0002104,87.9170,336.1205,90.8205,269.3169,0,U,50493,999,22122,.24376E-2,.974E-5,0
ONEWEB-0419,2021-132AB,2026-06-13T20:51:21.983616,13.18666261,.0002093,87.9168,336.1161,97.2022,262.9349,0,U,50494,999,22114,.12237E-3,.61E-6,0
ONEWEB-0420,2021-132AC,2026-06-13T20:00:34.290144,13.18685793,.0001651,87.9161,336.1266,95.3660,264.7661,0,U,50495,999,22113,.7999E-4,.44E-6,0
ONEWEB-0421,2021-132AD,2026-06-13T18:01:35.778720,13.18684383,.0001839,87.9165,336.1404,80.6272,279.5068,0,U,50496,999,22116,-.9775E-5,.9E-7,0
ONEWEB-0424,2021-132AE,2026-06-13T20:44:16.816992,13.18685298,.0002036,87.9168,336.1159,101.3199,258.8162,0,U,50497,999,22120,-.41171E-4,-.3E-7,0
ONEWEB-0426,2021-132AF,2026-06-13T12:27:44.095968,13.18689041,.00023521,87.9168,336.1757,78.1127,282.0269,0,U,50498,999,22110,.20782618E-3,.95E-6,0
ONEWEB-0427,2021-132AG,2026-06-13T20:41:51.169056,13.18685118,.0002032,87.9170,336.0959,90.1371,269.9993,0,U,50499,999,22117,-.53763E-4,-.8E-7,0
ONEWEB-0429,2021-132AH,2026-06-13T20:22:25.646016,13.18686010,.000171,87.9162,336.1234,93.1207,267.0121,0,U,50500,999,22114,.55248E-4,.35E-6,0
ONEWEB-0430,2021-132AJ,2026-06-13T20:05:25.620576,13.18686451,.0001746,87.9162,336.1241,100.6047,259.5282,0,U,50501,999,22118,.51161E-4,.33E-6,0
ONEWEB-0432,2021-132AK,2026-06-13T17:23:27.845376,13.17155491,.0002101,87.9169,336.1221,109.2572,250.8786,0,U,50502,999,22112,.38217E-4,.28E-6,0
ONEWEB-0440,2021-132AL,2026-06-13T20:34:33.831264,13.18685323,.0001589,87.9170,336.1158,84.5044,275.6269,0,U,50503,999,22113,-.81691E-4,-.19E-6,0
ONEWEB-0450,2021-132AM,2026-06-13T20:25:03.618912,13.18685764,.0001658,87.9159,336.1228,95.7414,264.3907,0,U,50504,999,22116,-.18691E-4,.6E-7,0
ONEWEB-0410,2022-012A,2026-06-13T19:12:13.094784,13.17648658,.0003105,87.9147,6.5305,76.9281,283.2197,0,U,51622,999,21325,.48328E-4,.32E-6,0
ONEWEB-0411,2022-012B,2026-06-13T21:10:33.958272,13.10369844,.0001632,87.8839,36.9248,100.5674,259.5637,0,U,51623,999,20885,.3122E-3,.122E-5,0
ONEWEB-0415,2022-012C,2026-06-13T21:05:47.714208,13.10370627,.0001794,87.8835,36.9245,90.7714,269.3619,0,U,51624,999,20885,.84937E-3,.309E-5,0
ONEWEB-0416,2022-012D,2026-06-13T21:22:31.266624,13.10370292,.0002054,87.8830,36.9402,94.6605,265.4757,0,U,51625,999,20889,-.98788E-3,-.332E-5,0
ONEWEB-0422,2022-012E,2026-06-13T19:26:48.300864,13.17649079,.0001238,87.9143,6.5297,81.9640,278.1631,0,U,51626,999,21336,-.79559E-4,-.18E-6,0
