ONEWEB-0399             
1 50479U 21132L   26164.84050565  .00000018  00000+0  16069-4 0  9990
2 50479  87.8897  21.7347 0002183  76.0222 284.1148 13.11413541215168
ONEWEB-0400             
1 50480U 21132M   26164.74605483  .00000087  00000+0  18850-3 0  9991
2 50480  87.9168 336.1293 0001920  97.5450 262.5900 13.18685253221154
ONEWEB-0401             
1 50481U 21132N   26164.86745375 -.00000031  00000+0 -11108-3 0  9990
2 50481  87.9170 336.1021 0001652  87.0616 273.0705 13.18685011221171
ONEWEB-0402             
1 50482U 21132P   26164.75449170  .00000095  00000+0  20711-3 0  9991
2 50482  87.9168 336.1140 0001598  78.8273 281.3038 13.18685854221184
ONEWEB-0403             
1 50483U 21132Q   26164.85564891  .00000102  00000+0  22718-3 0  9999
2 50483  87.9169 336.1180 0001976  90.5045 269.6314 13.18685626221158
ONEWEB-0404             
1 50484U 21132R   26164.66927007  .00000556  00000+0  15320-2 0  9994
2 50484  87.8893  21.7675 0002137  83.7899 276.3472 13.11417015215239
ONEWEB-0405             
1 50485U 21132S   26164.86914777 -.00000001  00000+0 -36090-4 0  9993
2 50485  87.9173 336.0998 0001955 105.6809 254.4539 13.18686786221557
ONEWEB-0406             
1 50486U 21132T   26164.86071043 -.00000005  00000+0 -45094-4 0  9992
2 50486  87.9165 336.1181 0002349  87.3327 272.8074 13.18685389221188
ONEWEB-0407             
1 50487U 21132U   26164.85397188  .00000010  00000+0 -79620-5 0  9991
2 50487  87.9169 336.1115 0001636  94.8420 265.2899 13.18685248221124
ONEWEB-0409             
1 50488U 21132V   26164.59127012  .00000543  00000+0  14960-2 0  9993
2 50488  87.8897  21.7710 0002099  86.6742 273.4626 13.11418292215117
ONEWEB-0412             
1 50489U 21132W   26164.84215850  .00000037  00000+0  61071-4 0  9995
2 50489  87.9166 336.1224 0001650  83.5970 276.5350 13.18684993221218
ONEWEB-0413             
1 50490U 21132X   26164.84724487 -.00001685  00000+0 -43081-2 0  9999
2 50490  87.9159 336.1205 0001531  85.6717 274.4590 13.18670677221151
ONEWEB-0414             
1 50491U 21132Y   26164.75617148  .00000035  00000+0  55965-4 0  9997
2 50491  87.9168 336.1199 0001842  86.3593 273.7750 13.18685147221179
ONEWEB-0417             
1 50492U 21132Z   26164.76460058  .00000015  00000+0  60225-5 0  9999
2 50492  87.9159 336.1381 0002080  91.3032 268.8338 13.18685179221152
ONEWEB-0418             
1 50493U 21132AA  26164.85044444  .00000974  00000+0  24376-2 0  9995
2 50493  87.9170 336.1205 0002104  90.8205 269.3169 13.18694820221223
ONEWEB-0419             
1 50494U 21132AB  26164.86900444  .00000061  00000+0  12237-3 0  9999
2 50494  87.9168 336.1161 0002093  97.2022 262.9349 13.18666261221145
ONEWEB-0420             
1 50495U 21132AC  26164.83373021  .00000044  00000+0  79990-4 0  9993
2 50495  87.9161 336.1266 0001651  95.3660 264.7661 13.18685793221138
ONEWEB-0421             
1 50496U 21132AD  26164.75110855  .00000009  00000+0 -97750-5 0  9996
2 50496  87.9165 336.1404 0001839  80.6272 279.5068 13.18684383221163
ONEWEB-0424             
1 50497U 21132AE  26164.86408353 -.00000003  00000+0 -41171-4 0  9992
2 50497  87.9168 336.1159 0002036 101.3199 258.8162 13.18685298221209
ONEWEB-0426             
1 50498U 21132AF  26164.51926037  .00000095  00000+0  20783-3 0  9993
2 50498  87.9168 336.1757 0002352  78.1127 282.0269 13.18689041221103
ONEWEB-0427             
1 50499U 21132AG  26164.86239779 -.00000008  00000+0 -53763-4 0  9993
2 50499  87.9170 336.0959 0002032  90.1371 269.9993 13.18685118221176
ONEWEB-0429             
1 50500U 21132AH  26164.84890794  .00000035  00000+0  55248-4 0  9992
2 50500  87.9162 336.1234 0001710  93.1207 267.0121 13.18686010221141
ONEWEB-0430             
1 50501U 21132AJ  26164.83710209  .00000033  00000+0  51161-4 0  9992
2 50501  87.9162 336.1241 0001746 100.6047 259.5282 13.18686451221182
ONEWEB-0432             
1 50502U 21132AK  26164.72462784  .00000028  00000+0  38217-4 0  9994
2 50502  87.9169 336.1221 0002101 109.2572 250.8786 13.17155491221123
ONEWEB-0440             
1 50503U 21132AL  26164.85733601 -.00000019  00000+0 -81691-4 0  9994
2 50503  87.9170 336.1158 0001589  84.5044 275.6269 13.18685323221138
ONEWEB-0450             
1 50504U 21132AM  26164.85073633  .00000006  00000+0 -18691-4 0  9992
2 50504  87.9159 336.1228 0001658  95.7414 264.3907 13.18685764221162
ONEWEB-0410             
1 51622U 22012A   26164.80015156  .00000032  00000+0  48328-4 0  9991
2 51622  87.9147   6.5305 0003105  76.9281 283.2197 13.17648658213259
ONEWEB-0411             
1 51623U 22012B   26164.88233748  .00000122  00000+0  31220-3 0  9991
2 51623  87.8839  36.9248 0001632 100.5674 259.5637 13.10369844208858
ONEWEB-0415             
1 51624U 22012C   26164.87902447  .00000309  00000+0  84937-3 0  9990
2 51624  87.8835  36.9245 0001794  90.7714 269.3619 13.10370627208856
ONEWEB-0416             
1 51625U 22012D   26164.89063966 -.00000332  00000+0 -98788-3 0  9994
2 51625  87.8830  36.9402 0002054  94.6605 265.4757 13.10370292208891
ONEWEB-0422             
1 51626U 22012E   26164.81028126 -.00000018  00000+0 -79559-4 0  9993
2 51626  87.9143   6.5297 0001238  81.9640 278.1631 13.17649079213365
